HST                     
1 20580U 90037B   25144.22786262  .00004692  00000+0  17402-3 0  9992
2 20580  28.4676 207.2921 0002628 173.9735 186.0892 15.25078055729286
POLAR                   
1 23802U 96013A   25142.54304128  .00000145  00000+0  00000+0 0  9993
2 23802  79.4218 231.3110 6104026 222.2655  69.7434  1.29846791139780
SWAS                    
1 25560U 98071A   25144.38974020  .00001999  00000+0  14391-3 0  9990
2 25560  69.8946 147.3110 0004745 166.6874 193.4415 15.05965030438924
CXO                     
1 25867U 99040B   25145.63205801  .00000510  00000+0  00000+0 0  9996
2 25867  49.0430 130.7337 8462915 309.1597 359.7113  0.37809562 15851
XMM-NEWTON              
1 25989U 99066A   25145.44008385  .00000022  00000+0  00000+0 0  9994
2 25989  66.3601 288.1032 4862901  71.6868   0.1038  0.50129644 21058
TERRA                   
1 25994U 99068A   25144.47573977  .00000406  00000+0  92543-4 0  9992
2 25994  97.9992 203.2428 0002937  44.9030  79.9240 14.60686492352971
CLUSTER II-FM7 (SAMBA)  
1 26410U 00041A   25146.99313152  .00001544  00000+0  00000+0 0  9991
2 26410 144.0346  10.5846 8336168 225.8684   0.3079  0.44842564 30336
CLUSTER II-FM5 (RUMBA)  
1 26463U 00045A   25142.19549594  .00004456  00000+0  00000+0 0  9997
2 26463 152.5010  72.0032 9066245 290.3471   1.9446  0.42919517 30846
CLUSTER II-FM8 (TANGO)  
1 26464U 00045B   25146.16603293  .00001554  00000+0  00000+0 0  9992
2 26464 144.2860  10.9124 8339109 226.0680   0.5155  0.44417139 66240
ODIN                    
1 26702U 01007A   25143.80899824  .00014431  00000+0  37250-3 0  9990
2 26702  97.4475 166.9972 0007667 135.9331 224.2526 15.39229174329006
TIMED                   
1 26998U 01055B   25143.84523156  .00001293  00000+0  12525-3 0  9996
2 26998  74.0682 298.1073 0001770 243.6993 116.4009 14.93908508272654
CORIOLIS                
1 27640U 03001A   25143.78605473  .00000109  00000+0  72243-4 0  9999
2 27640  98.7127 151.6515 0012876 253.0476 106.9289 14.19784971158965
SORCE                   
1 27651U 03004A   25143.87170316  .00003296  00000+0  26836-3 0  9993
2 27651  39.9920 317.3596 0016550 133.3742 226.8432 15.00437459213347
MOST                    
1 27843U 03031D   25143.61994557  .00000079  00000+0  56362-4 0  9993
2 27843  98.7056 151.7770 0008841 300.9272  59.1036 14.21204653135374
SCISAT 1                
1 27858U 03036A   25143.75327494  .00000619  00000+0  85127-4 0  9990
2 27858  73.9305 224.6490 0007342   7.4873 352.6411 14.80695299173793
SWIFT                   
1 28485U 04047A   25144.52260989  .00017187  00000+0  43146-3 0  9993
2 28485  20.5544 225.2444 0006010  74.1780 285.9322 15.37654648126599
HINODE (SOLAR-B)        
1 29479U 06041A   25144.05736347  .00000807  00000+0  14933-3 0  9990
2 29479  98.0724 160.7163 0019211  82.9793 277.3596 14.67883984997775
SHIJIAN-6 02A (SJ-6 02A)
1 29505U 06046A   25144.48529259  .00004550  00000+0  27451-3 0  9992
2 29505  97.6832 178.1032 0004760  58.9445 301.2252 15.11237621 13572
SHIJIAN-6 02B (SJ-6 02B)
1 29506U 06046B   25144.51174532  .00000577  00000+0  51353-4 0  9991
2 29506  97.7099 172.2068 0001885 323.5973  36.5122 14.99833141 12459
FGRST (GLAST)           
1 33053U 08029A   25144.04234812  .00003247  00000+0  12792-3 0  9992
2 33053  25.5831  20.4245 0009163  65.3636 294.7855 15.21010069936682
SDO                     
1 36395U 10005A   25143.42655814 -.00000055  00000+0  00000+0 0  9991
2 36395  33.8350  92.3055 0000297 106.9755  93.8238  1.00271221 56151
CRYOSAT 2               
1 36508U 10013A   25143.88963380  .00000217  00000+0  53077-4 0  9992
2 36508  92.0105 183.2827 0002250 116.6840 243.4598 14.51915317801637
X-SAT                   
1 37389U 11015C   25144.47473324  .00000108  00000+0  63400-4 0  9993
2 37389  98.3113 136.0410 0015045  48.1765 312.0698 14.25035239732834
GCOM-W1 (SHIZUKU)       
1 38337U 12025A   25144.07901128  .00000503  00000+0  12166-3 0  9994
2 38337  98.2014  85.2297 0001632  84.0319 286.7794 14.57090355692368
NUSTAR                  
1 38358U 12031A   25143.91668981 -.00000173  00000+0 -69746-4 0  9995
2 38358   6.0259  62.2731 0007772  98.2715 280.1698 15.03665537  1306
NEOSSAT                 
1 39089U 13009D   25144.12061978  .00000174  00000+0  75260-4 0  9997
2 39089  98.4073 328.6988 0010391 332.1573  27.9055 14.35603585640923
BRITE-AUSTRIA           
1 39091U 13009F   25143.75274028  .00000198  00000+0  82259-4 0  9992
2 39091  98.3884 328.1470 0009531 329.1858  30.8768 14.36301679641141
IRIS                    
1 39197U 13033A   25143.55519216  .00001128  00000+0  13963-3 0  9994
2 39197  97.9528 338.9073 0025722 149.5158 210.7557 14.84525139642567
HISAKI (SPRINT-A)       
1 39253U 13049A   25143.88775488  .00000127  00000+0  85388-4 0  9994
2 39253  29.7208  39.1439 0136684 100.9504 260.6478 13.55490656578566
CASSIOPE                
1 39265U 13055A   25143.84826356  .00015397 -38191-6  24620-3 0  9997
2 39265  80.9417 168.6460 0392736 267.1575  88.4644 14.97212341608899
STSAT-3                 
1 39422U 13066G   25144.51452284  .00002585  00000+0  21391-3 0  9991
2 39422  97.5600 118.1184 0019172 289.6623  70.2532 14.99628890625894
SWARM B                 
1 39451U 13067A   25143.89388816  .00003413  00000+0  13486-3 0  9990
2 39451  87.7423 100.2678 0003474  89.0985 271.0660 15.25158884623848
SWARM A                 
1 39452U 13067B   25143.88279597  .00007039  00000+0  16385-3 0  9994
2 39452  87.3436 199.5431 0003138  99.2526 260.9085 15.42086402646093
SWARM C                 
1 39453U 13067C   25143.88273308  .00006914  00000+0  16094-3 0  9997
2 39453  87.3434 198.1345 0003175  99.6910 260.4705 15.42083430646051
BRITE-CA1 (TORONTO)     
1 40020U 14033L   25144.32202847  .00001005  00000+0  16143-3 0  9994
2 40020  97.9234 276.9602 0081527  81.9066 279.1380 14.71590094585117
OCO 2                   
1 40059U 14035A   25143.86747643  .00000438  00000+0  10719-3 0  9996
2 40059  98.2009  85.7733 0001707  88.7245 271.4149 14.57086776579358
BRITE-PL2 (HEWELIUSZ)   
1 40119U 14049B   25144.26226941  .00001579  00000+0  15933-3 0  9996
2 40119  97.8888 249.4646 0013614 322.9270  37.1007 14.92495300583483
MMS 1                   
1 40482U 15011A   25144.58335648 -.00000051  00000+0  00000+0 0  9999
2 40482  64.2223 355.7442 8732628 159.1012 187.1539  0.28516085 16347
MMS 2                   
1 40483U 15011B   25144.58335648 -.00000051  00000+0  00000+0 0  9990
2 40483  64.2051 355.7501 8730620 159.0971 187.1476  0.28516156 16323
MMS 3                   
1 40484U 15011C   25144.58335648 -.00000051  00000+0  00000+0 0  9991
2 40484  64.2415 355.7331 8730505 159.1003 187.1420  0.28516108 16324
MMS 4                   
1 40485U 15011D   25144.58335648 -.00000051  00000+0  00000+0 0  9992
2 40485  64.2357 355.7463 8729629 159.0915 182.4844  0.28572576 16321
ASTROSAT                
1 40930U 15052A   25144.51013519  .00001622  00000+0  11953-3 0  9992
2 40930   5.9972  70.6410 0008690 248.9262 110.9936 14.81389532522129
DAMPE                   
1 41173U 15078A   25144.51107059  .00001366  00000+0  50536-4 0  9999
2 41173  97.4478 143.6464 0012964  22.4519 337.7286 15.29388525525118
PISAT                   
1 41784U 16059B   25144.54044243  .00000994  00000+0  18090-3 0  9999
2 41784  97.8163 157.1067 0029806   9.6660 350.5113 14.67901861462709
HXMT (HUIYAN)           
1 42758U 17034A   25144.48405319  .00003217  00000+0  18576-3 0  9993
2 42758  43.0133 179.4069 0035798 212.1648 147.7014 15.13655605438684
FLYING LAPTOP           
1 42831U 17042G   25144.49542396  .00001817  00000+0  15565-3 0  9991
2 42831  97.4067 312.8949 0012472  15.7492 344.4117 14.98678809428191
ZHANGHENG 1 (CSES)      
1 43194U 18015C   25144.48512510  .00007338  00000+0  33797-3 0  9990
2 43194  97.6466 298.3893 0011078 210.2788 149.7808 15.20549586405560
SALSAT                  
1 46495U 20068K   25143.92367159  .00005771  00000+0  25198-3 0  9998
2 46495  97.8591 121.1868 0010268 212.2772 147.7836 15.22509755255993
IXPE                    
1 49954U 21121A   25143.91668981  .00004096  00000+0  21884-3 0  9995
2 49954   0.2307   9.8743 0007834 330.9727 139.1690 15.05328436  5820
